{
 "generated_at": "2026-06-19T09:28:30Z",
 "sources": [
  {
   "name": "CelesTrak",
   "url": "https://celestrak.org/NORAD/elements/",
   "license": "frei verfügbar; Attribution. Ursprünglich USSPACECOM/Space-Track."
  },
  {
   "name": "GCAT (J. McDowell, planet4589.org)",
   "url": "https://planet4589.org/space/gcat/",
   "license": "CC-BY 4.0"
  }
 ],
 "satellites": [
  {
   "norad": 28376,
   "name": "AURA",
   "intl": "2004-026A",
   "group": "resource",
   "gcat": {
    "class": "C",
    "category": "EOSCI",
    "owner": "GSFC",
    "state": "US"
   },
   "omm": {
    "OBJECT_NAME": "AURA",
    "OBJECT_ID": "2004-026A",
    "EPOCH": "2026-06-19T04:15:08.733888",
    "MEAN_MOTION": 14.61331729,
    "ECCENTRICITY": 0.000119,
    "INCLINATION": 98.3417,
    "RA_OF_ASC_NODE": 126.647,
    "ARG_OF_PERICENTER": 76.6669,
    "MEAN_ANOMALY": 283.4664,
    "EPHEMERIS_TYPE": 0,
    "CLASSIFICATION_TYPE": "U",
    "NORAD_CAT_ID": 28376,
    "ELEMENT_SET_NO": 999,
    "REV_AT_EPOCH": 16650,
    "BSTAR": 0.0001338,
    "MEAN_MOTION_DOT": 0.00000613,
    "MEAN_MOTION_DDOT": 0
   }
  },
  {
   "norad": 63772,
   "name": "BIOMASS",
   "intl": "2025-090A",
   "group": "resource",
   "gcat": {
    "class": "C",
    "category": "EOSCI",
    "owner": "ESA",
    "state": "I-ESA"
   },
   "omm": {
    "OBJECT_NAME": "BIOMASS",
    "OBJECT_ID": "2025-090A",
    "EPOCH": "2026-06-18T11:10:04.238112",
    "MEAN_MOTION": 14.67536694,
    "ECCENTRICITY": 0.0001346,
    "INCLINATION": 98.0739,
    "RA_OF_ASC_NODE": 356.7637,
    "ARG_OF_PERICENTER": 96.2561,
    "MEAN_ANOMALY": 263.8797,
    "EPHEMERIS_TYPE": 0,
    "CLASSIFICATION_TYPE": "U",
    "NORAD_CAT_ID": 63772,
    "ELEMENT_SET_NO": 999,
    "REV_AT_EPOCH": 6087,
    "BSTAR": 0.0000363,
    "MEAN_MOTION_DOT": 0.00000158,
    "MEAN_MOTION_DDOT": 0
   }
  },
  {
   "norad": 57693,
   "name": "CAPELLA-11 (ACADIA-1)",
   "intl": "2023-126A",
   "group": "sar",
   "gcat": {
    "class": "B",
    "category": "IMG-R",
    "owner": "CAPSP",
    "state": "US"
   },
   "omm": {
    "OBJECT_NAME": "CAPELLA-11 (ACADIA-1)",
    "OBJECT_ID": "2023-126A",
    "EPOCH": "2026-06-18T07:42:12.596832",
    "MEAN_MOTION": 14.83634335,
    "ECCENTRICITY": 0.00019959,
    "INCLINATION": 53.0068,
    "RA_OF_ASC_NODE": 179.9795,
    "ARG_OF_PERICENTER": 89.3555,
    "MEAN_ANOMALY": 270.7652,
    "EPHEMERIS_TYPE": 0,
    "CLASSIFICATION_TYPE": "U",
    "NORAD_CAT_ID": 57693,
    "ELEMENT_SET_NO": 999,
    "REV_AT_EPOCH": 15229,
    "BSTAR": 0.00037172416,
    "MEAN_MOTION_DOT": 0.00002869,
    "MEAN_MOTION_DDOT": 0
   }
  },
  {
   "norad": 60419,
   "name": "CAPELLA-13 (ACADIA-3)",
   "intl": "2024-142A",
   "group": "sar",
   "gcat": {
    "class": "B",
    "category": "IMG-R",
    "owner": "CAPSP",
    "state": "US"
   },
   "omm": {
    "OBJECT_NAME": "CAPELLA-13 (ACADIA-3)",
    "OBJECT_ID": "2024-142A",
    "EPOCH": "2026-06-18T17:04:08.307264",
    "MEAN_MOTION": 14.8764186,
    "ECCENTRICITY": 0.0001903,
    "INCLINATION": 53.0082,
    "RA_OF_ASC_NODE": 50.9213,
    "ARG_OF_PERICENTER": 108.2516,
    "MEAN_ANOMALY": 251.8672,
    "EPHEMERIS_TYPE": 0,
    "CLASSIFICATION_TYPE": "U",
    "NORAD_CAT_ID": 60419,
    "ELEMENT_SET_NO": 999,
    "REV_AT_EPOCH": 10063,
    "BSTAR": 0.00042593,
    "MEAN_MOTION_DOT": 0.00003677,
    "MEAN_MOTION_DDOT": 0
   }
  },
  {
   "norad": 59444,
   "name": "CAPELLA-14 (ACADIA-4)",
   "intl": "2024-066C",
   "group": "sar",
   "gcat": {
    "class": "B",
    "category": "IMG-R",
    "owner": "CAPSP",
    "state": "US"
   },
   "omm": {
    "OBJECT_NAME": "CAPELLA-14 (ACADIA-4)",
    "OBJECT_ID": "2024-066C",
    "EPOCH": "2026-06-18T15:16:02.078688",
    "MEAN_MOTION": 15.11829666,
    "ECCENTRICITY": 0.00005138,
    "INCLINATION": 45.602,
    "RA_OF_ASC_NODE": 247.443,
    "ARG_OF_PERICENTER": 50.887,
    "MEAN_ANOMALY": 309.2061,
    "EPHEMERIS_TYPE": 0,
    "CLASSIFICATION_TYPE": "U",
    "NORAD_CAT_ID": 59444,
    "ELEMENT_SET_NO": 999,
    "REV_AT_EPOCH": 11270,
    "BSTAR": 0.00063704677,
    "MEAN_MOTION_DOT": 0.00010818,
    "MEAN_MOTION_DDOT": 0
   }
  },
  {
   "norad": 60544,
   "name": "CAPELLA-15 (ACADIA-5)",
   "intl": "2024-149CE",
   "group": "sar",
   "gcat": {
    "class": "B",
    "category": "IMG-R",
    "owner": "CAPSP",
    "state": "US"
   },
   "omm": {
    "OBJECT_NAME": "CAPELLA-15 (ACADIA-5)",
    "OBJECT_ID": "2024-149CE",
    "EPOCH": "2026-06-19T04:47:48.789600",
    "MEAN_MOTION": 14.92414825,
    "ECCENTRICITY": 0.000478,
    "INCLINATION": 97.6778,
    "RA_OF_ASC_NODE": 243.0545,
    "ARG_OF_PERICENTER": 76.1249,
    "MEAN_ANOMALY": 284.0502,
    "EPHEMERIS_TYPE": 0,
    "CLASSIFICATION_TYPE": "U",
    "NORAD_CAT_ID": 60544,
    "ELEMENT_SET_NO": 999,
    "REV_AT_EPOCH": 10015,
    "BSTAR": 0.0003089,
    "MEAN_MOTION_DOT": 0.00003109,
    "MEAN_MOTION_DDOT": 0
   }
  },
  {
   "norad": 65318,
   "name": "CAPELLA-16 (ACADIA-6)",
   "intl": "2025-188D",
   "group": "sar",
   "gcat": {
    "class": "B",
    "category": "IMG-R",
    "owner": "CAPSP",
    "state": "US"
   },
   "omm": {
    "OBJECT_NAME": "CAPELLA-16 (ACADIA-6)",
    "OBJECT_ID": "2025-188D",
    "EPOCH": "2026-06-19T02:22:37.386048",
    "MEAN_MOTION": 14.937574,
    "ECCENTRICITY": 0.0003551,
    "INCLINATION": 97.7384,
    "RA_OF_ASC_NODE": 245.2232,
    "ARG_OF_PERICENTER": 208.4876,
    "MEAN_ANOMALY": 151.615,
    "EPHEMERIS_TYPE": 0,
    "CLASSIFICATION_TYPE": "U",
    "NORAD_CAT_ID": 65318,
    "ELEMENT_SET_NO": 999,
    "REV_AT_EPOCH": 4420,
    "BSTAR": 0.00052,
    "MEAN_MOTION_DOT": 0.00005455,
    "MEAN_MOTION_DDOT": 0
   }
  },
  {
   "norad": 64583,
   "name": "CAPELLA-17 (ACADIA-7)",
   "intl": "2025-135BH",
   "group": "sar",
   "gcat": {
    "class": "B",
    "category": "IMG-R",
    "owner": "CAPSP",
    "state": "US"
   },
   "omm": {
    "OBJECT_NAME": "CAPELLA-17 (ACADIA-7)",
    "OBJECT_ID": "2025-135BH",
    "EPOCH": "2026-06-18T17:55:15.867552",
    "MEAN_MOTION": 14.91444472,
    "ECCENTRICITY": 0.0005082,
    "INCLINATION": 97.7708,
    "RA_OF_ASC_NODE": 283.3507,
    "ARG_OF_PERICENTER": 358.8703,
    "MEAN_ANOMALY": 1.2503,
    "EPHEMERIS_TYPE": 0,
    "CLASSIFICATION_TYPE": "U",
    "NORAD_CAT_ID": 64583,
    "ELEMENT_SET_NO": 999,
    "REV_AT_EPOCH": 5408,
    "BSTAR": 0.00050836591,
    "MEAN_MOTION_DOT": 0.00005028,
    "MEAN_MOTION_DDOT": 0
   }
  },
  {
   "norad": 67385,
   "name": "CAPELLA-18 (ACADIA-8)",
   "intl": "2026-004Y",
   "group": "sar",
   "gcat": {
    "class": "B",
    "category": "IMG-R",
    "owner": "CAPSP",
    "state": "US"
   },
   "omm": {
    "OBJECT_NAME": "CAPELLA-18 (ACADIA-8)",
    "OBJECT_ID": "2026-004Y",
    "EPOCH": "2026-06-19T05:28:30.809568",
    "MEAN_MOTION": 14.86646638,
    "ECCENTRICITY": 0.0001426,
    "INCLINATION": 97.8006,
    "RA_OF_ASC_NODE": 168.7191,
    "ARG_OF_PERICENTER": 88.9452,
    "MEAN_ANOMALY": 271.1927,
    "EPHEMERIS_TYPE": 0,
    "CLASSIFICATION_TYPE": "U",
    "NORAD_CAT_ID": 67385,
    "ELEMENT_SET_NO": 999,
    "REV_AT_EPOCH": 2358,
    "BSTAR": 0.00036567,
    "MEAN_MOTION_DOT": 0.00003193,
    "MEAN_MOTION_DDOT": 0
   }
  },
  {
   "norad": 67384,
   "name": "CAPELLA-19 (ACADIA-9)",
   "intl": "2026-004X",
   "group": "sar",
   "gcat": {
    "class": "B",
    "category": "IMG-R",
    "owner": "CAPSP",
    "state": "US"
   },
   "omm": {
    "OBJECT_NAME": "CAPELLA-19 (ACADIA-9)",
    "OBJECT_ID": "2026-004X",
    "EPOCH": "2026-06-19T02:00:07.765344",
    "MEAN_MOTION": 14.86627581,
    "ECCENTRICITY": 0.0001425,
    "INCLINATION": 97.8001,
    "RA_OF_ASC_NODE": 168.4269,
    "ARG_OF_PERICENTER": 86.3973,
    "MEAN_ANOMALY": 273.7406,
    "EPHEMERIS_TYPE": 0,
    "CLASSIFICATION_TYPE": "U",
    "NORAD_CAT_ID": 67384,
    "ELEMENT_SET_NO": 999,
    "REV_AT_EPOCH": 2355,
    "BSTAR": 0.00041487,
    "MEAN_MOTION_DOT": 0.00003629,
    "MEAN_MOTION_DDOT": 0
   }
  }
 ]
}
