AURA                    
1 28376U 04026A   26170.17718442  .00000613  00000+0  13380-3 0  9995
2 28376  98.3417 126.6470 0001190  76.6669 283.4664 14.61331729166505
CAPELLA-11 (ACADIA-1)   
1 57693U 23126A   26169.32097913  .00002869  00000+0  37172-3 0  9999
2 57693  53.0068 179.9795 0001995  89.3555 270.7652 14.83634335152298
CAPELLA-14 (ACADIA-4)   
1 59444U 24066C   26169.63613517  .00010818  00000+0  63705-3 0  9991
2 59444  45.6020 247.4430 0000513  50.8870 309.2061 15.11829666112703
CAPELLA-13 (ACADIA-3)   
1 60419U 24142A   26169.71120726  .00003677  00000+0  42593-3 0  9991
2 60419  53.0082  50.9213 0001903 108.2516 251.8672 14.87641860100632
CAPELLA-15 (ACADIA-5)   
1 60544U 24149CE  26170.19987025  .00003109  00000+0  30890-3 0  9991
2 60544  97.6778 243.0545 0004780  76.1249 284.0502 14.92414825100154
BIOMASS                 
1 63772U 25090A   26169.46532683  .00000158  00000+0  36300-4 0  9991
2 63772  98.0739 356.7637 0001346  96.2561 263.8797 14.67536694 60877
CAPELLA-17 (ACADIA-7)   
1 64583U 25135BH  26169.74671143  .00005028  00000+0  50837-3 0  9999
2 64583  97.7708 283.3507 0005082 358.8703   1.2503 14.91444472 54081
CAPELLA-16 (ACADIA-6)   
1 65318U 25188D   26170.09904382  .00005455  00000+0  52000-3 0  9996
2 65318  97.7384 245.2232 0003551 208.4876 151.6150 14.93757400 44201
CAPELLA-19 (ACADIA-9)   
1 67384U 26004X   26170.08342321  .00003629  00000+0  41487-3 0  9995
2 67384  97.8001 168.4269 0001425  86.3973 273.7406 14.86627581 23551
CAPELLA-18 (ACADIA-8)   
1 67385U 26004Y   26170.22813437  .00003193  00000+0  36567-3 0  9992
2 67385  97.8006 168.7191 0001426  88.9452 271.1927 14.86646638 23582
